start=new Date('2023-01-18T00:00:00.000Z').valueOf();
sats=[{"MEAN_ANOMALY":"255.4479","RA_OF_ASC_NODE":"251.0400","TLE_LINE2":"2 53173  53.2163 251.0400 0000851 104.6608 255.4479 15.08826239 28440","GP_ID":"223325313","TIME_SYSTEM":"UTC","CENTER_NAME":"EARTH","APOAPSIS":"540.376","SEMIMAJOR_AXIS":"6917.922","COUNTRY_CODE":"US","MEAN_ELEMENT_THEORY":"SGP4","INCLINATION":"53.2163","EPHEMERIS_TYPE":"0","FILE":"3753023","DECAY_DATE":null,"EPOCH":"2023-01-17T01:21:41.492736","CLASSIFICATION_TYPE":"U","PERIAPSIS":"539.199","OBJECT_TYPE":"PAYLOAD","LAUNCH_DATE":"2022-07-17","MEAN_MOTION":"15.08826239","ARG_OF_PERICENTER":"104.6608","NORAD_CAT_ID":"53173","OBJECT_ID":"2022-083AT","RCS_SIZE":"LARGE","MEAN_MOTION_DDOT":"0.0000000000000","ELEMENT_SET_NO":"999","OBJECT_NAME":"STARLINK-4300","ECCENTRICITY":"0.00008510","SITE":"AFETR","MEAN_MOTION_DOT":"-0.00003202","PERIOD":"95.438","REF_FRAME":"TEME","REV_AT_EPOCH":"2844","TLE_LINE1":"1 53173U 22083AT  23017.05673024 -.00003202  00000-0 -18327-3 0  9997","BSTAR":"-0.00018327000000"},{"EPHEMERIS_TYPE":"0","INCLINATION":"53.2143","MEAN_ELEMENT_THEORY":"SGP4","APOAPSIS":"540.835","SEMIMAJOR_AXIS":"6917.961","CENTER_NAME":"EARTH","TIME_SYSTEM":"UTC","COUNTRY_CODE":"US","MEAN_ANOMALY":"287.4425","TLE_LINE2":"2 53174  53.2143 285.6358 0001459  72.6726 287.4425 15.08813585 27977","GP_ID":"223325556","RA_OF_ASC_NODE":"285.6358","LAUNCH_DATE":"2022-07-17","MEAN_MOTION":"15.08813585","DECAY_DATE":null,"FILE":"3753023","EPOCH":"2023-01-17T03:36:06.409152","OBJECT_TYPE":"PAYLOAD","PERIAPSIS":"538.817","CLASSIFICATION_TYPE":"U","ELEMENT_SET_NO":"999","OBJECT_NAME":"STARLINK-4205","OBJECT_ID":"2022-083AU","RCS_SIZE":"LARGE","MEAN_MOTION_DDOT":"0.0000000000000","NORAD_CAT_ID":"53174","ARG_OF_PERICENTER":"72.6726","BSTAR":"0.00200040000000","TLE_LINE1":"1 53174U 22083AU  23017.15007418  .00031669  00000-0  20004-2 0  9997","REV_AT_EPOCH":"2797","REF_FRAME":"TEME","PERIOD":"95.439","ECCENTRICITY":"0.00014590","SITE":"AFETR","MEAN_MOTION_DOT":"0.00031669"},{"LAUNCH_DATE":"2022-07-17","MEAN_MOTION":"15.08825137","DECAY_DATE":null,"FILE":"3753023","EPOCH":"2023-01-17T03:30:48.043296","CLASSIFICATION_TYPE":"U","PERIAPSIS":"538.794","OBJECT_TYPE":"PAYLOAD","TIME_SYSTEM":"UTC","SEMIMAJOR_AXIS":"6917.926","APOAPSIS":"540.788","CENTER_NAME":"EARTH","COUNTRY_CODE":"US","MEAN_ANOMALY":"278.0396","RA_OF_ASC_NODE":"285.6542","GP_ID":"223326275","TLE_LINE2":"2 53175  53.2142 285.6542 0001441  82.0760 278.0396 15.08825137 27975","EPHEMERIS_TYPE":"0","MEAN_ELEMENT_THEORY":"SGP4","INCLINATION":"53.2142","PERIOD":"95.438","ECCENTRICITY":"0.00014410","SITE":"AFETR","MEAN_MOTION_DOT":"0.00033402","REV_AT_EPOCH":"2797","TLE_LINE1":"1 53175U 22083AV  23017.14638939  .00033402  00000-0  21077-2 0  9993","BSTAR":"0.00210770000000","REF_FRAME":"TEME","NORAD_CAT_ID":"53175","ARG_OF_PERICENTER":"82.0760","ELEMENT_SET_NO":"999","OBJECT_NAME":"STARLINK-4292","RCS_SIZE":"LARGE","OBJECT_ID":"2022-083AV","MEAN_MOTION_DDOT":"0.0000000000000"},{"NORAD_CAT_ID":"53176","ARG_OF_PERICENTER":"58.8145","ELEMENT_SET_NO":"999","OBJECT_NAME":"STARLINK-4294","OBJECT_ID":"2022-083AW","RCS_SIZE":"LARGE","MEAN_MOTION_DDOT":"0.0000000000000","PERIOD":"95.437","ECCENTRICITY":"0.00015190","SITE":"AFETR","MEAN_MOTION_DOT":"0.00015059","TLE_LINE1":"1 53176U 22083AW  23017.88749165  .00015059  00000-0  96207-3 0  9995","BSTAR":"0.00096207000000","REV_AT_EPOCH":"2843","REF_FRAME":"TEME","APOAPSIS":"540.775","CENTER_NAME":"EARTH","SEMIMAJOR_AXIS":"6917.859","TIME_SYSTEM":"UTC","COUNTRY_CODE":"US","MEAN_ANOMALY":"301.2996","GP_ID":"223384169","TLE_LINE2":"2 53176  53.2177 257.3153 0001519  58.8145 301.2996 15.08846934 28437","RA_OF_ASC_NODE":"257.3153","EPHEMERIS_TYPE":"0","INCLINATION":"53.2177","MEAN_ELEMENT_THEORY":"SGP4","LAUNCH_DATE":"2022-07-17","MEAN_MOTION":"15.08846934","EPOCH":"2023-01-17T21:17:59.278560","FILE":"3753286","DECAY_DATE":null,"OBJECT_TYPE":"PAYLOAD","CLASSIFICATION_TYPE":"U","PERIAPSIS":"538.673"},{"ARG_OF_PERICENTER":"67.0743","NORAD_CAT_ID":"53177","RCS_SIZE":"LARGE","OBJECT_ID":"2022-083AX","MEAN_MOTION_DDOT":"0.0000000000000","ELEMENT_SET_NO":"999","OBJECT_NAME":"STARLINK-4298","SITE":"AFETR","ECCENTRICITY":"0.00010880","MEAN_MOTION_DOT":"-0.00001376","PERIOD":"95.437","REF_FRAME":"TEME","REV_AT_EPOCH":"2857","BSTAR":"-0.00006836100000","TLE_LINE1":"1 53177U 22083AX  23017.91048367 -.00001376  00000-0 -68361-4 0  9996","MEAN_ANOMALY":"293.0364","RA_OF_ASC_NODE":"247.2083","TLE_LINE2":"2 53177  53.2157 247.2083 0001088  67.0743 293.0364 15.08845192 28570","GP_ID":"223384884","TIME_SYSTEM":"UTC","APOAPSIS":"540.482","SEMIMAJOR_AXIS":"6917.865","CENTER_NAME":"EARTH","COUNTRY_CODE":"US","MEAN_ELEMENT_THEORY":"SGP4","INCLINATION":"53.2157","EPHEMERIS_TYPE":"0","EPOCH":"2023-01-17T21:51:05.789088","FILE":"3753286","DECAY_DATE":null,"CLASSIFICATION_TYPE":"U","PERIAPSIS":"538.977","OBJECT_TYPE":"PAYLOAD","LAUNCH_DATE":"2022-07-17","MEAN_MOTION":"15.08845192"},{"INCLINATION":"53.2165","MEAN_ELEMENT_THEORY":"SGP4","EPHEMERIS_TYPE":"0","GP_ID":"223384644","TLE_LINE2":"2 53178  53.2165 273.2900 0001599  79.2835 280.8337 15.08826232 28186","RA_OF_ASC_NODE":"273.2900","MEAN_ANOMALY":"280.8337","COUNTRY_CODE":"US","CENTER_NAME":"EARTH","APOAPSIS":"540.894","SEMIMAJOR_AXIS":"6917.922","TIME_SYSTEM":"UTC","OBJECT_TYPE":"PAYLOAD","PERIAPSIS":"538.681","CLASSIFICATION_TYPE":"U","EPOCH":"2023-01-17T16:04:37.385760","FILE":"3753286","DECAY_DATE":null,"MEAN_MOTION":"15.08826232","LAUNCH_DATE":"2022-07-17","MEAN_MOTION_DDOT":"0.0000000000000","RCS_SIZE":"MEDIUM","OBJECT_ID":"2022-083AY","OBJECT_NAME":"STARLINK-4280","ELEMENT_SET_NO":"999","ARG_OF_PERICENTER":"79.2835","NORAD_CAT_ID":"53178","REF_FRAME":"TEME","BSTAR":"0.00004961200000","TLE_LINE1":"1 53178U 22083AY  23017.66987715  .00000501  00000-0  49612-4 0  9993","REV_AT_EPOCH":"2818","MEAN_MOTION_DOT":"0.00000501","SITE":"AFETR","ECCENTRICITY":"0.00015990","PERIOD":"95.438"},{"ELEMENT_SET_NO":"999","OBJECT_NAME":"STARLINK-4276","RCS_SIZE":"LARGE","OBJECT_ID":"2022-083AZ","MEAN_MOTION_DDOT":"0.0000000000000","NORAD_CAT_ID":"53179","ARG_OF_PERICENTER":"72.3442","BSTAR":"0.00012387000000","TLE_LINE1":"1 53179U 22083AZ  23017.59622322  .00001684  00000-0  12387-3 0  9997","REV_AT_EPOCH":"2874","REF_FRAME":"TEME","PERIOD":"95.438","SITE":"AFETR","ECCENTRICITY":"0.00014500","MEAN_MOTION_DOT":"0.00001684","EPHEMERIS_TYPE":"0","INCLINATION":"53.2175","MEAN_ELEMENT_THEORY":"SGP4","APOAPSIS":"540.756","CENTER_NAME":"EARTH","SEMIMAJOR_AXIS":"6917.888","TIME_SYSTEM":"UTC","COUNTRY_CODE":"US","MEAN_ANOMALY":"287.7708","TLE_LINE2":"2 53179  53.2175 233.2092 0001450  72.3442 287.7708 15.08837402 28741","GP_ID":"223325795","RA_OF_ASC_NODE":"233.2092","LAUNCH_DATE":"2022-07-17","MEAN_MOTION":"15.08837402","FILE":"3753023","DECAY_DATE":null,"EPOCH":"2023-01-17T14:18:33.686208","OBJECT_TYPE":"PAYLOAD","PERIAPSIS":"538.750","CLASSIFICATION_TYPE":"U"},{"REV_AT_EPOCH":"2875","TLE_LINE1":"1 53180U 22083BA  23017.68088475  .00000940  00000-0  77159-4 0  9997","BSTAR":"0.00007715900000","REF_FRAME":"TEME","PERIOD":"95.438","MEAN_MOTION_DOT":"0.00000940","ECCENTRICITY":"0.00012410","SITE":"AFETR","OBJECT_NAME":"STARLINK-4258","ELEMENT_SET_NO":"999","MEAN_MOTION_DDOT":"0.0000000000000","RCS_SIZE":"LARGE","OBJECT_ID":"2022-083BA","NORAD_CAT_ID":"53180","ARG_OF_PERICENTER":"95.5860","MEAN_MOTION":"15.08837099","LAUNCH_DATE":"2022-07-17","CLASSIFICATION_TYPE":"U","PERIAPSIS":"538.896","OBJECT_TYPE":"PAYLOAD","FILE":"3753286","EPOCH":"2023-01-17T16:20:28.442400","DECAY_DATE":null,"EPHEMERIS_TYPE":"0","MEAN_ELEMENT_THEORY":"SGP4","INCLINATION":"53.2168","COUNTRY_CODE":"US","TIME_SYSTEM":"UTC","APOAPSIS":"540.613","CENTER_NAME":"EARTH","SEMIMAJOR_AXIS":"6917.889","RA_OF_ASC_NODE":"233.0269","GP_ID":"223383682","TLE_LINE2":"2 53180  53.2168 233.0269 0001241  95.5860 264.5274 15.08837099 28752","MEAN_ANOMALY":"264.5274"},{"EPHEMERIS_TYPE":"0","MEAN_ELEMENT_THEORY":"SGP4","INCLINATION":"53.2183","COUNTRY_CODE":"US","TIME_SYSTEM":"UTC","APOAPSIS":"540.518","CENTER_NAME":"EARTH","SEMIMAJOR_AXIS":"6917.887","RA_OF_ASC_NODE":"232.7109","GP_ID":"223384410","TLE_LINE2":"2 53181  53.2183 232.7109 0001108  95.9640 264.1478 15.08837895 28768","MEAN_ANOMALY":"264.1478","MEAN_MOTION":"15.08837895","LAUNCH_DATE":"2022-07-17","PERIAPSIS":"538.985","CLASSIFICATION_TYPE":"U","OBJECT_TYPE":"PAYLOAD","FILE":"3753286","DECAY_DATE":null,"EPOCH":"2023-01-17T17:51:56.209248","OBJECT_NAME":"STARLINK-4273","ELEMENT_SET_NO":"999","MEAN_MOTION_DDOT":"0.0000000000000","RCS_SIZE":"LARGE","OBJECT_ID":"2022-083BB","NORAD_CAT_ID":"53181","ARG_OF_PERICENTER":"95.9640","REV_AT_EPOCH":"2876","TLE_LINE1":"1 53181U 22083BB  23017.74440057  .00000852  00000-0  71606-4 0  9996","BSTAR":"0.00007160600000","REF_FRAME":"TEME","PERIOD":"95.438","MEAN_MOTION_DOT":"0.00000852","SITE":"AFETR","ECCENTRICITY":"0.00011080"},{"COUNTRY_CODE":"US","TIME_SYSTEM":"UTC","APOAPSIS":"540.667","SEMIMAJOR_AXIS":"6917.856","CENTER_NAME":"EARTH","RA_OF_ASC_NODE":"247.2309","GP_ID":"223385120","TLE_LINE2":"2 53182  53.2168 247.2309 0001368  73.3045 286.8097 15.08848007 28576","MEAN_ANOMALY":"286.8097","EPHEMERIS_TYPE":"0","MEAN_ELEMENT_THEORY":"SGP4","INCLINATION":"53.2168","MEAN_MOTION":"15.08848007","LAUNCH_DATE":"2022-07-17","PERIAPSIS":"538.775","CLASSIFICATION_TYPE":"U","OBJECT_TYPE":"PAYLOAD","FILE":"3753286","EPOCH":"2023-01-17T21:45:47.801664","DECAY_DATE":null,"NORAD_CAT_ID":"53182","ARG_OF_PERICENTER":"73.3045","OBJECT_NAME":"STARLINK-4278","ELEMENT_SET_NO":"999","MEAN_MOTION_DDOT":"0.0000000000000","OBJECT_ID":"2022-083BC","RCS_SIZE":"LARGE","PERIOD":"95.437","MEAN_MOTION_DOT":"-0.00001017","ECCENTRICITY":"0.00013680","SITE":"AFETR","REV_AT_EPOCH":"2857","TLE_LINE1":"1 53182U 22083BC  23017.90680326 -.00001017  00000-0 -45816-4 0  9990","BSTAR":"-0.00004581600000","REF_FRAME":"TEME"}];
